STARLINK-37298          
1 68670U 26077J   26165.89635455  .00009898  00000+0  30848-3 0  9993
2 68670  97.2867  37.1538 0001100  88.8367 271.3002 15.33449282 10059
STARLINK-37224          
1 68671U 26077K   26165.89091628  .00021926  00000+0  67943-3 0  9994
2 68671  97.2863  37.1581 0001038 104.2634 255.8724 15.33448569 10059
STARLINK-37296          
1 68672U 26077L   26165.88819774  .00018033  00000+0  55953-3 0  9997
2 68672  97.2865  37.1609 0001137  99.3661 260.7711 15.33446753 10051
STARLINK-37316          
1 68673U 26077M   26165.62445818  .00020323  00000+0  63005-3 0  9996
2 68673  97.2846  36.9110 0001761  92.4568 267.6876 15.33448719 10016
STARLINK-36672          
1 68674U 26077N   26165.88275971  .00013148  00000+0  40880-3 0  9999
2 68674  97.2854  37.1685 0001524  94.0441 266.0976 15.33451002 10058
STARLINK-36669          
1 68675U 26077P   26165.88003964  .00017377  00000+0  53919-3 0  9996
2 68675  97.2851  37.1750 0001644  93.1947 266.9484 15.33453727 10052
STARLINK-37312          
1 68676U 26077Q   26165.60542632  .00022270  00000+0  68997-3 0  9997
2 68676  97.2851  36.9373 0001925  84.1285 276.0178 15.33451211 10012
STARLINK-36168          
1 68677U 26077R   26165.61357462  .00008420  00000+0  26277-3 0  9990
2 68677  97.2853  36.9288 0001634  73.1734 286.9688 15.33453742 10011
STARLINK-37122          
1 68678U 26077S   26165.61086410  .00019161  00000+0  59425-3 0  9998
2 68678  97.2850  36.9288 0001816  87.9987 272.1463 15.33448825 10018
STARLINK-37310          
1 68679U 26077T   26165.60814610  .00018900  00000+0  58625-3 0  9990
2 68679  97.2851  36.9319 0001843  88.0009 272.1445 15.33446557 10012
STARLINK-37306          
1 68680U 26077U   26165.59999443  .00014227  00000+0  44174-3 0  9990
2 68680  97.2854  36.9429 0001685  87.8395 272.3041 15.33475539 10014
STARLINK-37307          
1 68681U 26077V   26165.60270769  .00019590  00000+0  60754-3 0  9996
2 68681  97.2853  36.9398 0001816  89.6213 270.5238 15.33445170 10010
STARLINK-37300          
1 68682U 26077W   26165.65436789  .00020771  00000+0  64383-3 0  9993
2 68682  97.2848  37.0240 0001881  91.0622 269.0836 15.33450361 10022
STARLINK-37304          
1 68683U 26077X   26165.59183116  .00024822  00000+0  76843-3 0  9995
2 68683  97.2852  36.9554 0002024  84.5739 275.5734 15.33453765 10019
STARLINK-37287          
1 68684U 26077Y   26165.59454973  .00013988  00000+0  43474-3 0  9993
2 68684  97.2854  36.9513 0001956  92.5891 267.5576 15.33448451 10019
STARLINK-36278          
1 68685U 26077Z   26165.89275889 -.01140827  00000+0 -92255-2 0  9990
2 68685  97.2850  39.6023 0001398 128.2186 231.9205 15.73474298 10214
STARLINK-37213          
1 68686U 26077AA  26165.59728146  .00015367  00000+0  47692-3 0  9990
2 68686  97.2853  36.9445 0001837  88.2323 271.9130 15.33472167 10010
STARLINK-37358          
1 68699U 26081A   26165.66551838  .00026244  00000+0  78472-3 0  9995
2 68699  53.1594 303.4152 0001136  95.0439 265.0693 15.34417250  9592
STARLINK-37334          
1 68700U 26081B   26165.85881712  .00032210  00000+0  95945-3 0  9990
2 68700  53.1598 302.4887 0001111  93.2182 266.8948 15.34429390  9625
STARLINK-36955          
1 68701U 26081C   26165.66132767  .00044966  00000+0  13336-2 0  9993
2 68701  53.1593 303.3840 0001328  68.6078 291.5066 15.34409562  9591
STARLINK-36275          
1 68702U 26081D   26165.65921111  .00026457  00000+0  79096-3 0  9993
2 68702  53.1607 303.3904 0001212  85.0496 275.0644 15.34417674  9590
STARLINK-36271          
1 68703U 26081E   26165.65710428  .00022260  00000+0  66794-3 0  9990
2 68703  53.1605 303.3654 0001267  80.8507 279.2638 15.34402070  9590
STARLINK-37356          
1 68704U 26081F   26165.65499946  .00024683  00000+0  73890-3 0  9996
2 68704  53.1607 303.3527 0001286  78.2121 281.9026 15.34415200  9596
STARLINK-35369          
1 68705U 26081G   26165.65533088  .00025404  00000+0  73613-3 0  9998
2 68705  53.1611 303.3551 0001248  77.9659 282.1484 15.35425622  9590
STARLINK-37319          
1 68706U 26081H   26165.64658520  .00028731  00000+0  85780-3 0  9991
2 68706  53.1616 303.3137 0001336  72.8763 287.2386 15.34415590  9593
STARLINK-37112          
1 68707U 26081J   26165.65078197  .00032804  00000+0  97650-3 0  9994
2 68707  53.1605 303.3330 0001163  82.5263 277.5871 15.34441362  9595
STARLINK-37340          
1 68708U 26081K   26165.84409089  .00031561  00000+0  94097-3 0  9995
2 68708  53.1603 302.3960 0001202  96.5984 263.5155 15.34410688  9622
STARLINK-37303          
1 68709U 26081L   26165.64447897  .00034819  00000+0  10360-2 0  9992
2 68709  53.1611 303.2824 0001272 103.9008 256.2136 15.34424988  9590
STARLINK-36859          
1 68710U 26081M   26165.64237366  .00023957  00000+0  71771-3 0  9997
2 68710  53.1604 303.2681 0001813 100.1098 260.0109 15.34408702  9593
STARLINK-37320          
1 68711U 26081N   26165.83339119  .00070807  00000+0  20906-2 0  9997
2 68711  53.1603 302.3551 0002233  79.3456 268.0941 15.34345837  5936
