OBJECT_NAME,OBJECT_ID,EPOCH,MEAN_MOTION,ECCENTRICITY,INCLINATION,RA_OF_ASC_NODE,ARG_OF_PERICENTER,MEAN_ANOMALY,EPHEMERIS_TYPE,CLASSIFICATION_TYPE,NORAD_CAT_ID,ELEMENT_SET_NO,REV_AT_EPOCH,BSTAR,MEAN_MOTION_DOT,MEAN_MOTION_DDOT
STARLINK-37298,2026-077J,2026-06-14T21:30:45.033120,15.33449282,.00011,97.2867,37.1538,88.8367,271.3002,0,U,68670,999,1005,.30848E-3,.9898E-4,0
STARLINK-37224,2026-077K,2026-06-14T21:22:55.166592,15.33448569,.0001038,97.2863,37.1581,104.2634,255.8724,0,U,68671,999,1005,.67943E-3,.21926E-3,0
STARLINK-37296,2026-077L,2026-06-14T21:19:00.284736,15.33446753,.0001137,97.2865,37.1609,99.3661,260.7711,0,U,68672,999,1005,.55953E-3,.18033E-3,0
STARLINK-37316,2026-077M,2026-06-14T14:59:13.186752,15.33448719,.0001761,97.2846,36.9110,92.4568,267.6876,0,U,68673,999,1001,.63005E-3,.20323E-3,0
STARLINK-36672,2026-077N,2026-06-14T21:11:10.438944,15.33451002,.0001524,97.2854,37.1685,94.0441,266.0976,0,U,68674,999,1005,.4088E-3,.13148E-3,0
STARLINK-36669,2026-077P,2026-06-14T21:07:15.424896,15.33453727,.0001644,97.2851,37.1750,93.1947,266.9484,0,U,68675,999,1005,.53919E-3,.17377E-3,0
STARLINK-37312,2026-077Q,2026-06-14T14:31:48.834048,15.33451211,.0001925,97.2851,36.9373,84.1285,276.0178,0,U,68676,999,1001,.68997E-3,.2227E-3,0
STARLINK-36168,2026-077R,2026-06-14T14:43:32.847168,15.33453742,.0001634,97.2853,36.9288,73.1734,286.9688,0,U,68677,999,1001,.26277E-3,.842E-4,0
STARLINK-37122,2026-077S,2026-06-14T14:39:38.658240,15.33448825,.0001816,97.2850,36.9288,87.9987,272.1463,0,U,68678,999,1001,.59425E-3,.19161E-3,0
STARLINK-37310,2026-077T,2026-06-14T14:35:43.823040,15.33446557,.0001843,97.2851,36.9319,88.0009,272.1445,0,U,68679,999,1001,.58625E-3,.189E-3,0
STARLINK-37306,2026-077U,2026-06-14T14:23:59.518752,15.33475539,.0001685,97.2854,36.9429,87.8395,272.3041,0,U,68680,999,1001,.44174E-3,.14227E-3,0
STARLINK-37307,2026-077V,2026-06-14T14:27:53.944416,15.33445170,.0001816,97.2853,36.9398,89.6213,270.5238,0,U,68681,999,1001,.60754E-3,.1959E-3,0
STARLINK-37300,2026-077W,2026-06-14T15:42:17.385696,15.33450361,.0001881,97.2848,37.0240,91.0622,269.0836,0,U,68682,999,1002,.64383E-3,.20771E-3,0
STARLINK-37304,2026-077X,2026-06-14T14:12:14.212224,15.33453765,.0002024,97.2852,36.9554,84.5739,275.5734,0,U,68683,999,1001,.76843E-3,.24822E-3,0
STARLINK-37287,2026-077Y,2026-06-14T14:16:09.096672,15.33448451,.0001956,97.2854,36.9513,92.5891,267.5576,0,U,68684,999,1001,.43474E-3,.13988E-3,0
STARLINK-36278,2026-077Z,2026-06-14T21:25:34.368096,15.73474298,.0001398,97.2850,39.6023,128.2186,231.9205,0,U,68685,999,1021,-.92255E-2,-.1140827E-1,0
STARLINK-37213,2026-077AA,2026-06-14T14:20:05.118144,15.33472167,.0001837,97.2853,36.9445,88.2323,271.9130,0,U,68686,999,1001,.47692E-3,.15367E-3,0
STARLINK-37358,2026-081A,2026-06-14T15:58:20.788032,15.34417250,.0001136,53.1594,303.4152,95.0439,265.0693,0,U,68699,999,959,.78472E-3,.26244E-3,0
STARLINK-37334,2026-081B,2026-06-14T20:36:41.799168,15.34429390,.0001111,53.1598,302.4887,93.2182,266.8948,0,U,68700,999,962,.95945E-3,.3221E-3,0
STARLINK-36955,2026-081C,2026-06-14T15:52:18.710688,15.34409562,.0001328,53.1593,303.3840,68.6078,291.5066,0,U,68701,999,959,.13336E-2,.44966E-3,0
STARLINK-36275,2026-081D,2026-06-14T15:49:15.839904,15.34417674,.0001212,53.1607,303.3904,85.0496,275.0644,0,U,68702,999,959,.79096E-3,.26457E-3,0
STARLINK-36271,2026-081E,2026-06-14T15:46:13.809792,15.34402070,.0001267,53.1605,303.3654,80.8507,279.2638,0,U,68703,999,959,.66794E-3,.2226E-3,0
STARLINK-37356,2026-081F,2026-06-14T15:43:11.953344,15.34415200,.0001286,53.1607,303.3527,78.2121,281.9026,0,U,68704,999,959,.7389E-3,.24683E-3,0
STARLINK-35369,2026-081G,2026-06-14T15:43:40.588032,15.35425622,.0001248,53.1611,303.3551,77.9659,282.1484,0,U,68705,999,959,.73613E-3,.25404E-3,0
STARLINK-37319,2026-081H,2026-06-14T15:31:04.961280,15.34415590,.0001336,53.1616,303.3137,72.8763,287.2386,0,U,68706,999,959,.8578E-3,.28731E-3,0
STARLINK-37112,2026-081J,2026-06-14T15:37:07.562208,15.34441362,.0001163,53.1605,303.3330,82.5263,277.5871,0,U,68707,999,959,.9765E-3,.32804E-3,0
STARLINK-37340,2026-081K,2026-06-14T20:15:29.452896,15.34410688,.0001202,53.1603,302.3960,96.5984,263.5155,0,U,68708,999,962,.94097E-3,.31561E-3,0
STARLINK-37303,2026-081L,2026-06-14T15:28:02.983008,15.34424988,.0001272,53.1611,303.2824,103.9008,256.2136,0,U,68709,999,959,.1036E-2,.34819E-3,0
STARLINK-36859,2026-081M,2026-06-14T15:25:01.084224,15.34408702,.0001813,53.1604,303.2681,100.1098,260.0109,0,U,68710,999,959,.71771E-3,.23957E-3,0
STARLINK-37320,2026-081N,2026-06-14T20:00:04.998816,15.34345837,.0002233,53.1603,302.3551,79.3456,268.0941,0,U,68711,999,593,.20906E-2,.70807E-3,0
